NORAD_CAT_ID,OBJECT_NAME,OBJECT_TYPE,EPOCH,MEAN_MOTION,ECCENTRICITY,INCLINATION,RA_OF_ASC_NODE,ARG_OF_PERICENTER,MEAN_ANOMALY,BSTAR,MEAN_MOTION_DOT,MEAN_MOTION_DDOT,TLE_LINE0,TLE_LINE1,TLE_LINE2,SEMIMAJOR_AXIS,PERIOD,APOGEE,PERIGEE,DECAYED
53141.0,STARLINK-4103,PAYLOAD,2024-04-05 05:48:20,15.08851688,0.0001471,53.215,92.0197,93.5017,266.6143,0.00036326,5.5e-05,0.0,0 STARLINK-4103,1 53141U 22083K   24096.24190681  .00005500  00000-0  36326-3 0  9994,2 53141  53.2150  92.0197 0001471  93.5017 266.6143 15.08851688 95651,6917.845,95.437,540.727,538.692,0.0
53141.0,STARLINK-4103,PAYLOAD,2024-04-05 08:59:06,15.08881307,0.0001557,53.2152,91.4246,103.5765,256.5401,0.0011226,0.00017644,0.0,0 STARLINK-4103,1 53141U 22083K   24096.37437693  .00017644  00000-0  11226-2 0  9998,2 53141  53.2152  91.4246 0001557 103.5765 256.5401 15.08881307 95676,6917.754,95.435,540.696,538.542,0.0
53141.0,STARLINK-4103,PAYLOAD,2024-04-05 16:56:01,15.08894384,0.0001917,53.2148,89.9377,77.811,282.3097,0.0012109,0.00019065,0.0,0 STARLINK-4103,1 53141U 22083K   24096.70556746  .00019065  00000-0  12109-2 0  9996,2 53141  53.2148  89.9377 0001917  77.8110 282.3097 15.08894384 95098,6917.714,95.434,540.905,538.253,0.0
53141.0,STARLINK-4103,PAYLOAD,2024-04-06 05:39:06,15.08834081,0.0001263,53.2155,87.5587,88.8585,271.2552,-0.00056679,-9.295e-05,0.0,0 STARLINK-4103,1 53141U 22083K   24097.23549587 -.00009295  00000-0 -56679-3 0  9997,2 53141  53.2155  87.5587 0001263  88.8585 271.2552 15.08834081 95805,6917.898,95.438,540.637,538.89,0.0
53141.0,STARLINK-4103,PAYLOAD,2024-04-06 08:49:53,15.08835784,0.0001351,53.2152,86.9634,89.5996,270.5151,-0.0003178,-5.342e-05,0.0,0 STARLINK-4103,1 53141U 22083K   24097.36797818 -.00005342  00000-0 -31780-3 0  9998,2 53141  53.2152  86.9634 0001351  89.5996 270.5151 15.08835784 95190,6917.893,95.438,540.693,538.824,0.0
53141.0,STARLINK-4103,PAYLOAD,2024-04-06 16:46:49,15.08836565,0.0001364,53.2153,85.4771,87.3991,272.7157,-0.00017541,-3.078e-05,0.0,0 STARLINK-4103,1 53141U 22083K   24097.69917917 -.00003078  00000-0 -17541-3 0  9991,2 53141  53.2153  85.4771 0001364  87.3991 272.7157 15.08836565 95246,6917.891,95.438,540.699,538.812,0.0
53141.0,STARLINK-4103,PAYLOAD,2024-04-07 05:29:54,15.08831635,0.0001457,53.2175,83.0969,93.673,266.4429,-4.4188e-05,-9.91e-06,0.0,0 STARLINK-4103,1 53141U 22083K   24098.22910508 -.00000991  00000-0 -44188-4 0  9999,2 53141  53.2175  83.0969 0001457  93.6730 266.4429 15.08831635 95950,6917.906,95.438,540.779,538.763,0.0
53141.0,STARLINK-4103,PAYLOAD,2024-04-07 22:59:09,15.08836532,0.0001422,53.2166,79.8257,93.7914,266.3241,0.0004521,6.914e-05,0.0,0 STARLINK-4103,1 53141U 22083K   24098.95775136  .00006914  00000-0  45210-3 0  9990,2 53141  53.2166  79.8257 0001422  93.7914 266.3241 15.08836532 95435,6917.891,95.438,540.74,538.772,0.0
53141.0,STARLINK-4103,PAYLOAD,2024-04-08 08:31:28,15.08843944,0.0001426,53.2168,78.0417,94.1624,265.9531,0.00049268,7.563e-05,0.0,0 STARLINK-4103,1 53141U 22083K   24099.35519064  .00007563  00000-0  49268-3 0  9999,2 53141  53.2168  78.0417 0001426  94.1624 265.9531 15.08843944 96122,6917.868,95.437,540.72,538.747,0.0
53141.0,STARLINK-4103,PAYLOAD,2024-04-09 05:11:29,15.08842767,0.0001337,53.2166,74.1771,88.8502,271.2643,0.00020865,3.035e-05,0.0,0 STARLINK-4103,1 53141U 22083K   24100.21631081  .00003035  00000-0  20865-3 0  9993,2 53141  53.2166  74.1771 0001337  88.8502 271.2643 15.08842767 96256,6917.872,95.437,540.662,538.812,0.0
53141.0,STARLINK-4103,PAYLOAD,2024-04-09 22:40:43,15.088441,0.0001613,53.2203,70.9101,95.9512,264.1664,0.00013725,1.897e-05,0.0,0 STARLINK-4103,1 53141U 22083K   24100.94494981  .00001897  00000-0  13725-3 0  9990,2 53141  53.2203  70.9101 0001613  95.9512 264.1664 15.08844100 95735,6917.868,95.437,540.849,538.617,0.0
53141.0,STARLINK-4103,PAYLOAD,2024-04-10 05:02:16,15.08839418,0.0001467,53.219,69.7196,96.2684,263.8475,2.8742e-05,1.69e-06,0.0,0 STARLINK-4103,1 53141U 22083K   24101.20991195  .00000169  00000-0  28742-4 0  9996,2 53141  53.2190  69.7196 0001467  96.2684 263.8475 15.08839418 96408,6917.882,95.438,540.762,538.732,0.0
53141.0,STARLINK-4103,PAYLOAD,2024-04-10 14:34:34,15.08846729,0.0001407,53.2181,67.9337,94.2437,265.8716,0.00011778,1.587e-05,0.0,0 STARLINK-4103,1 53141U 22083K   24101.60734687  .00001587  00000-0  11778-3 0  9996,2 53141  53.2181  67.9337 0001407  94.2437 265.8716 15.08846729 95832,6917.86,95.437,540.698,538.751,0.0
53141.0,STARLINK-4103,PAYLOAD,2024-04-11 04:53:03,15.08834719,0.0001511,53.2185,65.2561,84.2519,275.8646,-3.3545e-06,-3.41e-06,0.0,0 STARLINK-4103,1 53141U 22083K   24102.20351544 -.00000341  00000-0 -33545-5 0  9997,2 53141  53.2185  65.2561 0001511  84.2519 275.8646 15.08834719 96551,6917.897,95.438,540.807,538.716,0.0
53141.0,STARLINK-4103,PAYLOAD,2024-04-11 14:25:22,15.08845691,0.0001606,53.2193,63.4749,88.7377,271.3799,0.00015698,2.212e-05,0.0,0 STARLINK-4103,1 53141U 22083K   24102.60095145  .00002212  00000-0  15698-3 0  9997,2 53141  53.2193  63.4749 0001606  88.7377 271.3799 15.08845691 95981,6917.863,95.437,540.839,538.617,0.0
53141.0,STARLINK-4103,PAYLOAD,2024-04-12 04:43:50,15.08834714,0.0001422,53.2179,60.7966,89.1978,270.9178,4.1762e-05,3.77e-06,0.0,0 STARLINK-4103,1 53141U 22083K   24103.19711801  .00000377  00000-0  41762-4 0  9998,2 53141  53.2179  60.7966 0001422  89.1978 270.9178 15.08834714 96705,6917.897,95.438,540.745,538.778,0.0
53141.0,STARLINK-4103,PAYLOAD,2024-04-12 06:19:14,15.08835742,0.0001427,53.2178,60.4989,87.9708,272.1448,6.1021e-05,6.83e-06,0.0,0 STARLINK-4103,1 53141U 22083K   24103.26335804  .00000683  00000-0  61021-4 0  9991,2 53141  53.2178  60.4989 0001427  87.9708 272.1448 15.08835742 96085,6917.893,95.438,540.746,538.771,0.0
53141.0,STARLINK-4103,PAYLOAD,2024-04-13 04:34:37,15.08848142,0.0001458,53.2177,56.3361,86.9274,273.1885,0.00033007,4.97e-05,0.0,0 STARLINK-4103,1 53141U 22083K   24104.19071594  .00004970  00000-0  33007-3 0  9992,2 53141  53.2177  56.3361 0001458  86.9274 273.1885 15.08848142 96852,6917.856,95.437,540.729,538.712,0.0
53141.0,STARLINK-4103,PAYLOAD,2024-04-13 06:10:00,15.08851194,0.0001463,53.2178,56.038,86.6364,273.4795,0.00039164,5.952e-05,0.0,0 STARLINK-4103,1 53141U 22083K   24104.25695499  .00005952  00000-0  39164-3 0  9996,2 53141  53.2178  56.0380 0001463  86.6364 273.4795 15.08851194 96230,6917.846,95.437,540.723,538.699,0.0
53141.0,STARLINK-4103,PAYLOAD,2024-04-14 02:50:01,15.08843064,0.0001545,53.2188,52.169,96.4273,263.6895,0.00015709,2.213e-05,0.0,0 STARLINK-4103,1 53141U 22083K   24105.11807670  .00002213  00000-0  15709-3 0  9994,2 53141  53.2188  52.1690 0001545  96.4273 263.6895 15.08843064 96993,6917.871,95.437,540.805,538.667,0.0
53141.0,STARLINK-4103,PAYLOAD,2024-04-14 06:00:48,15.08837161,0.0001608,53.2186,51.5762,85.914,274.2036,0.00034059,5.136e-05,0.0,0 STARLINK-4103,1 53141U 22083K   24105.25056102  .00005136  00000-0  34059-3 0  9991,2 53141  53.2186  51.5762 0001608  85.9140 274.2036 15.08837161 96389,6917.889,95.438,540.866,538.642,0.0
53141.0,STARLINK-4103,PAYLOAD,2024-04-15 05:51:34,15.08849371,0.0001461,53.2189,47.1145,96.5422,263.5736,0.00012993,1.781e-05,0.0,0 STARLINK-4103,1 53141U 22083K   24106.24415189  .00001781  00000-0  12993-3 0  9990,2 53141  53.2189  47.1145 0001461  96.5422 263.5736 15.08849371 97167,6917.852,95.437,540.727,538.706,0.0
53141.0,STARLINK-4103,PAYLOAD,2024-04-16 00:56:12,15.08840421,0.0001269,53.218,43.5453,105.5485,254.5647,8.5245e-05,1.069e-05,0.0,0 STARLINK-4103,1 53141U 22083K   24107.03903459  .00001069  00000-0  85245-4 0  9990,2 53141  53.2180  43.5453 0001269 105.5485 254.5647 15.08840421 97287,6917.879,95.438,540.622,538.866,0.0
53141.0,STARLINK-4103,PAYLOAD,2024-04-16 05:42:22,15.08841374,0.0001259,53.2179,42.6542,99.3238,260.7897,8.9679e-05,1.14e-05,0.0,0 STARLINK-4103,1 53141U 22083K   24107.23775477  .00001140  00000-0  89679-4 0  9994,2 53141  53.2179  42.6542 0001259  99.3238 260.7897 15.08841374 96686,6917.876,95.437,540.612,538.87,0.0
53141.0,STARLINK-4103,PAYLOAD,2024-04-17 02:22:22,15.08843601,0.0001204,53.2171,38.7909,84.3829,275.73,0.00037098,5.622e-05,0.0,0 STARLINK-4103,1 53141U 22083K   24108.09887263  .00005622  00000-0  37098-3 0  9992,2 53141  53.2171  38.7909 0001204  84.3829 275.7300 15.08843601 97446,6917.869,95.437,540.567,538.901,0.0
53141.0,STARLINK-4103,PAYLOAD,2024-04-17 05:33:08,15.08853541,0.0001165,53.2171,38.1952,80.4794,279.6329,0.00023853,3.512e-05,0.0,0 STARLINK-4103,1 53141U 22083K   24108.23134738  .00003512  00000-0  23853-3 0  9990,2 53141  53.2171  38.1952 0001165  80.4794 279.6329 15.08853541 97462,6917.839,95.437,540.51,538.898,0.0
53141.0,STARLINK-4103,PAYLOAD,2024-04-18 00:37:47,15.08832127,0.0001198,53.217,34.6274,81.5633,278.5494,-2.0982e-05,-6.22e-06,0.0,0 STARLINK-4103,1 53141U 22083K   24109.02624158 -.00000622  00000-0 -20982-4 0  9990,2 53141  53.2170  34.6274 0001198  81.5633 278.5494 15.08832127 97580,6917.904,95.438,540.598,538.941,0.0
53141.0,STARLINK-4103,PAYLOAD,2024-04-18 22:53:11,15.08833076,0.0001257,53.2177,30.4682,101.322,258.7913,-6.9851e-05,-1.399e-05,0.0,0 STARLINK-4103,1 53141U 22083K   24109.95360729 -.00001399  00000-0 -69851-4 0  9993,2 53141  53.2177  30.4682 0001257 101.3220 258.7913 15.08833076 97099,6917.902,95.438,540.636,538.897,0.0
53141.0,STARLINK-4103,PAYLOAD,2024-04-19 03:39:21,15.08840567,0.0001297,53.2176,29.5757,82.4652,277.6487,0.0002547,3.768e-05,0.0,0 STARLINK-4103,1 53141U 22083K   24110.15232683  .00003768  00000-0  25470-3 0  9992,2 53141  53.2176  29.5757 0001297  82.4652 277.6487 15.08840567 97754,6917.879,95.438,540.641,538.846,0.0
53141.0,STARLINK-4103,PAYLOAD,2024-04-19 22:43:58,15.08856942,0.0001449,53.218,26.0039,76.4538,283.6615,0.00064858,0.00010054,0.0,0 STARLINK-4103,1 53141U 22083K   24110.94720288  .00010054  00000-0  64858-3 0  9991,2 53141  53.2180  26.0039 0001449  76.4538 283.6615 15.08856942 97247,6917.829,95.436,540.696,538.691,0.0
